[ {"name": "STARLINK-35114", "line1": "1 65502U 25198L   26193.00962487  .00019028  00000+0  57290-3 0  9995", "line2": "2 65502  53.1591  51.4498 0001149  75.7549 284.3581 15.34398569 47686"}, {"name": "STARLINK-35126", "line1": "1 65503U 25198M   26193.61527111  .00017186  00000+0  51858-3 0  9991", "line2": "2 65503  53.1592  50.2411 0001194  96.9232 263.1907 15.34402180 47754"}, {"name": "STARLINK-35182", "line1": "1 65504U 25198N   26193.60005851  .00020738  00000+0  62312-3 0  9997", "line2": "2 65504  53.1603  48.7349 0001584  44.4266 315.6864 15.34404752 47772"}, {"name": "STARLINK-35072", "line1": "1 65505U 25198P   26193.56636508  .00023163  00000+0  69354-3 0  9990", "line2": "2 65505  53.1586  48.5135 0001718 137.4868 222.6268 15.34446804 47773"}, {"name": "STARLINK-35184", "line1": "1 65506U 25198Q   26192.99489833  .00024396  00000+0  73107-3 0  9994", "line2": "2 65506  53.1603  51.3535 0001373  79.0844 281.0313 15.34389508 47689"}, {"name": "STARLINK-35163", "line1": "1 65507U 25198R   26193.03114870  .00019230  00000+0  57865-3 0  9991", "line2": "2 65507  53.1603  52.9995 0001144  79.0866 281.0265 15.34409062 47669"}, {"name": "STARLINK-35119", "line1": "1 65508U 25198S   26193.02014437  .00025759  00000+0  77071-3 0  9993", "line2": "2 65508  53.1597  51.5160 0001163  54.1746 305.9365 15.34407256 47685"}, {"name": "STARLINK-35168", "line1": "1 65509U 25198T   26193.58953602  .00022954  00000+0  68844-3 0  9993", "line2": "2 65509  53.1594  48.6670 0001362  74.2697 285.8455 15.34399128 47779"}, {"name": "STARLINK-35122", "line1": "1 65510U 25198U   26193.62942423  .00026710  00000+0  79861-3 0  9994", "line2": "2 65510  53.1592  48.1972 0002242 100.6828 259.4427 15.34408581 47788"}, {"name": "STARLINK-35124", "line1": "1 65511U 25198V   26193.03057456  .00020083  00000+0  60398-3 0  9995", "line2": "2 65511  53.1582  50.8643 0001149  93.0272 267.0862 15.34396844 47681"}, {"name": "STARLINK-35149", "line1": "1 65512U 25198W   26193.00120145  .00000054  00000+0  12737-4 0  9990", "line2": "2 65512  53.1594  51.3904 0001298  60.9623 299.1510 15.34390076 47686"}, {"name": "STARLINK-35019", "line1": "1 65513U 25198X   26193.59373269  .00011664  00000+0  35569-3 0  9998", "line2": "2 65513  53.1595  48.6894 0001065  89.3075 270.8049 15.34409191 47775"}, {"name": "STARLINK-35026", "line1": "1 65514U 25198Y   26193.60264803  .00020033  00000+0  60236-3 0  9993", "line2": "2 65514  53.1627  50.1667 0001673  62.7171 297.4002 15.34404850 47754"}, {"name": "STARLINK-35241", "line1": "1 65515U 25198Z   26193.58335648  .00044877  00000+0  13313-2 0  9992", "line2": "2 65515  53.1609  50.8213 0001362  70.1305 252.6226 15.34403272  5871"}, {"name": "STARLINK-35216", "line1": "1 65516U 25198AA  26193.62368559  .00017674  00000+0  53289-3 0  9997", "line2": "2 65516  53.1599  50.2905 0001067  88.9741 271.1384 15.34406218 47752"}, {"name": "STARLINK-35228", "line1": "1 65517U 25198AB  26193.62521357  .00009409  00000+0  28928-3 0  9994", "line2": "2 65517  53.1587  48.1735 0000859 123.5950 236.5135 15.34397591 47788"}, {"name": "STARLINK-35232", "line1": "1 65518U 25198AC  26192.89197691  .00012943  00000+0  39360-3 0  9992", "line2": "2 65518  53.1587  52.1244 0001180  70.2628 289.8502 15.34394857 47665"}, {"name": "STARLINK-35164", "line1": "1 65519U 25198AD  26193.60216029  .00023435  00000+0  70235-3 0  9994", "line2": "2 65519  53.1602  48.7390 0001399  66.8259 293.2891 15.34408768 47779"}, {"name": "STARLINK-35112", "line1": "1 65520U 25200A   26193.58335648  .00090484  00000+0  27758-2 0  9995", "line2": "2 65520  97.2855 261.0434 0001752 113.6435 181.8748 15.33397594  5746"}, {"name": "STARLINK-35187", "line1": "1 65521U 25200B   26192.75747630  .00146652  00000+0  86456-2 0  9991", "line2": "2 65521  97.2858 260.2231 0001403 152.4819 207.6486 15.10868346 47808"}, {"name": "STARLINK-35188", "line1": "1 65522U 25200C   26193.58335648  .02733528  00000+0  11828+0 0  9990", "line2": "2 65522  97.2865 261.0238 0001449 105.8785 141.3315 15.18901244  5742"}, {"name": "STARLINK-35078", "line1": "1 65523U 25200D   26193.58335648  .00105982  00000+0  32512-2 0  9992", "line2": "2 65523  97.2854 261.0351 0001710  81.1332 199.4626 15.33327749  5784"}, {"name": "STARLINK-35055", "line1": "1 65524U 25200E   26193.58335648  .01924048  00000+0  63819-1 0  9999", "line2": "2 65524  97.2856 261.0398 0001828  87.2382 177.7855 15.28050799  5695"}, {"name": "STARLINK-35057", "line1": "1 65525U 25200F   26193.58335648  .00086574  00000+0  26580-2 0  9997", "line2": "2 65525  97.2857 261.0428 0001700  97.7017 167.8063 15.33389329  5793"}, {"name": "STARLINK-34674", "line1": "1 65526U 25200G   26193.58335648  .02592393  00000+0  11764+0 0  9996", "line2": "2 65526  97.2874 261.0047 0003313 109.7825  81.2431 15.16812427  5792"}, {"name": "STARLINK-35067", "line1": "1 65527U 25200H   26190.59570792  .00004594  00000+0  28210-3 0  9993", "line2": "2 65527  97.2855 258.1061 0001547  96.1376 264.0031 15.10559177 47474"}, {"name": "STARLINK-35063", "line1": "1 65528U 25200J   26188.36837489  .00063071  00000+0  43135-2 0  9992", "line2": "2 65528  97.2833 256.0847 0003662  43.7101 316.4416 15.05846747 47143"}, {"name": "STARLINK-35077", "line1": "1 65529U 25200K   26193.58335648  .04808196  00000+0  20837+0 0  9993", "line2": "2 65529  97.2857 260.9554 0001274  74.2315 351.5714 15.17860040  5737"}, {"name": "STARLINK-35152", "line1": "1 65530U 25200L   26193.58335648  .02075380  00000+0  89591-1 0  9998", "line2": "2 65530  97.2849 261.0091 0001511  86.9934  86.8273 15.18800134  5297"}, {"name": "STARLINK-35064", "line1": "1 65531U 25200M   26193.58335648  .03338539  00000+0  15499+0 0  9992", "line2": "2 65531  97.2822 260.9639 0002942  58.5410  67.3776 15.16288018  5783"}, {"name": "STARLINK-35170", "line1": "1 65532U 25200N   26193.58335648  .04247302  00000+0  16813+0 0  9992", "line2": "2 65532  97.2872 261.0446 0001838  91.2460 186.3776 15.20850738  5791"}, {"name": "STARLINK-35172", "line1": "1 65533U 25200P   26193.58335648  .00111004  00000+0  34010-2 0  9990", "line2": "2 65533  97.2864 260.9992 0002695  92.3364  98.2839 15.33344459  5797"}, {"name": "STARLINK-35125", "line1": "1 65534U 25200Q   26193.58335648  .04296068  00000+0  12944+0 0  9998", "line2": "2 65534  97.2847 261.0035 0001307 112.1757  66.5848 15.30010378  5745"}, {"name": "STARLINK-35133", "line1": "1 65535U 25200R   26193.58335648  .02462860  00000+0  87494-1 0  9996", "line2": "2 65535  97.2851 261.0453 0001907  91.7285 168.9399 15.25465294  5641"}, {"name": "STARLINK-35044", "line1": "1 65536U 25200S   26193.58335648  .00008529  00000+0  26636-3 0  9996", "line2": "2 65536  97.2853 261.0706 0001784  97.4821 228.0316 15.33427860  5785"}, {"name": "STARLINK-35136", "line1": "1 65537U 25200T   26193.58335648  .00092184  00000+0  28273-2 0  9995", "line2": "2 65537  97.2852 261.0549 0002375  87.4247 223.0914 15.33395926  5795"}, {"name": "STARLINK-35144", "line1": "1 65538U 25200U   26193.58335648  .02512941  00000+0  81488-1 0  9992", "line2": "2 65538  97.2852 261.0050 0001431  89.0887  81.2165 15.28436716  5781"}, {"name": "STARLINK-35110", "line1": "1 65539U 25200V   26193.58335648  .02038659  00000+0  81578-1 0  9992", "line2": "2 65539  97.2852 261.0526 0001743  87.8590 186.3907 15.21504005  5740"}, {"name": "STARLINK-35052", "line1": "1 65540U 25200W   26192.68778389  .00246133  00000+0  14218-1 0  9990", "line2": "2 65540  97.2867 260.1632 0000989 184.0783 176.0440 15.11094292 47713"}, {"name": "STARLINK-35087", "line1": "1 65541U 25200X   26193.49013049  .00540068  00000+0  29318-1 0  9997", "line2": "2 65541  97.2836 260.9087 0002263 117.7029 242.4432 15.12259971 47914"}, {"name": "STARLINK-35100", "line1": "1 65542U 25200Y   26193.58335648  .03376659  00000+0  98705-1 0  9992", "line2": "2 65542  97.2860 260.9702 0001788  77.4128  39.4077 15.31333945  5793"}, {"name": "STARLINK-35105", "line1": "1 65543U 25200Z   26193.58335648  .02489668  00000+0  11142+0 0  9995", "line2": "2 65543  97.2848 261.0179 0001571  91.4372 109.9918 15.17458364  5791"}, {"name": "STARLINK-35267", "line1": "1 65592U 25207A   26193.60622968  .00001064  00000+0  77583-4 0  9997", "line2": "2 65592  97.2821 259.7594 0000733 122.4807 237.6492 15.05663163 47040"}, {"name": "STARLINK-35269", "line1": "1 65593U 25207B   26192.77551006  .00001390  00000+0  10022-3 0  9995", "line2": "2 65593  97.2846 259.0558 0001681 108.2243 251.9168 15.05657026 46926"}, {"name": "STARLINK-35191", "line1": "1 65594U 25207C   26192.72566316 -.00001028  00000+0 -67320-4 0  9995", "line2": "2 65594  97.2863 258.9679 0001622 125.7247 234.4132 15.05660288 46753"}, {"name": "STARLINK-35261", "line1": "1 65595U 25207D   26193.15763744 -.00009886  00000+0 -68182-3 0  9994", "line2": "2 65595  97.2831 259.4512 0001304 119.4119 240.7239 15.05674520 46994"}, {"name": "STARLINK-35253", "line1": "1 65596U 25207E   26193.13271709  .00003499  00000+0  24623-3 0  9992", "line2": "2 65596  97.2854 259.3321 0001579  98.7037 261.4370 15.05661696 46771"}, {"name": "STARLINK-35263", "line1": "1 65597U 25207F   26193.18256600  .00002394  00000+0  16970-3 0  9990", "line2": "2 65597  97.2848 259.4210 0001596 104.8311 255.3094 15.05658871 46996"}, {"name": "STARLINK-35248", "line1": "1 65598U 25207G   26193.16595741  .00004595  00000+0  32211-3 0  9992", "line2": "2 65598  97.2845 259.4403 0002089  94.0076 266.1390 15.05660870 46995"}, {"name": "STARLINK-35245", "line1": "1 65599U 25207H   26193.61454813  .00000069  00000+0  86692-5 0  9993", "line2": "2 65599  97.2816 259.9046 0001143 121.3609 238.7731 15.05662402 47064"}, {"name": "STARLINK-35229", "line1": "1 65600U 25207J   26193.13825377  .00002525  00000+0  17881-3 0  9991", "line2": "2 65600  97.2835 259.3247 0001178 112.3995 247.7358 15.05659515 46987"}, {"name": "STARLINK-35234", "line1": "1 65601U 25207K   26193.12994760  .00003953  00000+0  27766-3 0  9993", "line2": "2 65601  97.2867 259.3364 0001035 172.2146 187.9098 15.05659674 46980"}]